[Satellite]
VERSION=1.1
NAME=JAS-2 (FO-29)
NICKNAME=FO-29
TLE1=1 24278U 96046B   19316.84632767 -.00000030  00000-0  69059-5 0  9999
TLE2=2 24278  98.5602  90.4525 0349805 218.4186 139.1571 13.53094802147700
STATUS=0
